P/2009 WX51 (Catalina),e,9.5998,31.6674,118.1275,3.076906,0.1826134,0.74049413,199.7952,06/23.0/2018,2000,g 19.0,2.0
# From MPC 82316
C/2009 Y1 (Catalina),e,107.3327,160.2328,127.1229,341.3238,0.0001563,0.99267852,0.0000,01/30.0839/2011,2000,g  9.0,4.0
# From MPC 74247
P/2009 Y2 (Kowalski),e,29.9458,262.0219,172.3617,6.543762,0.0588793,0.63606501,177.7680,06/23.0/2018,2000,g 13.0,4.0
# From MPC 69417
P/2010 A1 (Hill),e,10.3086,47.3168,13.2987,4.389728,0.1071637,0.55411907,347.8067,06/23.0/2018,2000,g 13.0,4.0
# From MPC 75711
P/2010 A3 (Hill),e,14.9653,64.6342,41.4891,6.073209,0.0658532,0.73207674,197.8866,06/23.0/2018,2000,g 14.0,4.0
# From MPC 77403
C/2010 A4 (Siding Spring),e,96.7263,346.6615,271.5675,287.4754,0.0002022,0.99053544,0.0000,10/11.6140/2010,2000,g 12.5,4.0
# From MPC 72851
P/2010 A5 (LINEAR),e,5.7955,277.6779,307.0377,5.088401,0.0858681,0.66546860,255.9408,06/23.0/2018,2000,g 13.0,4.0
# From MPC 80896
C/2010 B1 (Cardinal),e,101.7685,277.2815,211.6330,14553,0.0000006,0.99979775,0.0000,02/07.3052/2011,2000,g  7.5,4.0
# From MPC105235
P/2010 B2 (WISE),e,8.9361,0.8598,155.9814,3.108020,0.1798781,0.48040073,198.9400,06/23.0/2018,2000,g 17.0,4.0
# From MPC 75008
P/2010 C1 (Scotti),e,9.1349,141.8896,4.0616,7.095117,0.0521513,0.25971436,163.0212,06/23.0/2018,2000,g  9.5,4.0
# From MPC 75008
P/2010 D2 (WISE),e,57.1057,319.8544,120.3113,6.713908,0.0566554,0.45059958,172.1686,06/23.0/2018,2000,g 16.0,4.0
# From MPC 84315
C/2010 D3 (WISE),h,09/02.9876/2010,76.3111,255.0542,304.6794,1.000053,4.252099,2000,9.0,4.0
# From MPC 76025
C/2010 D4 (WISE),e,105.7932,266.7338,44.4057,62.52004,0.0019938,0.88554451,6.7288,06/23.0/2018,2000,g  6.5,4.0
# From MPC 74248
C/2010 DG56 (WISE),e,160.4135,4.1089,318.3100,67.12056,0.0017923,0.97654485,0.0000,05/16.2917/2010,2000,g 16.0,4.0
# From MPC 70361
C/2010 E1 (Garradd),e,71.6228,169.2405,297.2204,112.2516,0.0008287,0.97605275,0.0000,11/03.8241/2009,2000,g 11.5,4.0
# From MPC 75009
P/2010 E2 (Jarnac),e,15.4575,177.8157,8.3323,8.628337,0.0388878,0.72213100,116.4962,06/23.0/2018,2000,g 14.0,4.0
# From MPC 70361
C/2010 E5 (Scotti),e,18.9071,16.9354,148.1159,24.99686,0.0078863,0.84360199,24.7372,06/23.0/2018,2000,g 10.5,4.0
# From MPC 72132
C/2010 F1 (Boattini),e,64.8672,344.3733,127.7740,69.46786,0.0017023,0.94791978,5.3622,06/23.0/2018,2000,g  9.5,4.0
# From MPC 82316
C/2010 F3 (Scotti),e,4.6472,157.3362,31.4941,64.54188,0.0019008,0.91529672,5.4719,06/23.0/2018,2000,g  8.5,4.0
# From MPC 82316
C/2010 FB87 (WISE-Garradd),e,107.8785,90.0543,265.0815,227.5714,0.0002871,0.98747479,0.0000,11/05.8388/2010,2000,g 10.0,4.0
# From MPC 70816
C/2010 G1 (Boattini),e,78.1125,287.6413,168.7873,519.7600,0.0000832,0.99766087,0.0000,04/01.4399/2010,2000,g 12.5,4.0
# From MPC 83142
C/2010 G2 (Hill),e,103.7515,247.0582,137.3840,93.22175,0.0010950,0.97883219,0.0000,09/02.5993/2011,2000,g  8.0,4.0
# From MPC 75292
C/2010 G3 (WISE),e,108.3524,313.7866,75.2256,984.6115,0.0000319,0.99500043,0.0000,04/06.4911/2010,2000,g  8.5,4.0
# From MPC 82316
C/2010 H1 (Garradd),e,36.5341,347.3365,233.8163,4508,0.0000033,0.99939197,0.0000,06/21.5010/2010,2000,g 13.0,4.0
# From MPC 72851
P/2010 H2 (Vales),e,14.2747,64.2440,129.1817,3.847526,0.1305966,0.19563411,36.8203,06/23.0/2018,2000,g  6.0,4.0
# From MPC 70361
P/2010 H3 (SOHO),e,23.8179,78.2547,24.9318,3.068250,0.1833868,0.98464416,0.0000,02/08.5975/2021,2000,g 20.0,2.0
# From MPC 73463
P/2010 H4 (Scotti),e,2.3220,44.7609,179.4420,6.582449,0.0583610,0.26908196,170.5912,06/23.0/2018,2000,g 10.5,4.0
# From MPC 74637
P/2010 H5 (Scotti),e,14.0854,24.8018,175.2127,7.143873,0.0516183,0.15594451,154.1981,06/23.0/2018,2000,g 13.0,2.0
# From MPC 71278
C/2010 J1 (Boattini),e,134.5131,254.5503,332.8489,36.02829,0.0045576,0.95277287,13.9646,06/23.0/2018,2000,g 12.0,4.0
# From MPC 75712
C/2010 J2 (McNaught),e,125.9404,311.7476,4.3925,1295,0.0000211,0.99739085,0.0000,05/31.3829/2010,2000,g  9.0,4.0
# From MPC 82316
P/2010 J3 (McMillan),e,13.2795,106.4445,157.4512,8.959579,0.0367513,0.72771423,104.9853,06/23.0/2018,2000,g 11.0,4.0
# From MPC 84315
P/2010 JC81 (WISE),e,38.6073,30.8330,12.5403,8.121236,0.0425864,0.77579219,111.6112,06/23.0/2018,2000,g  9.0,4.0
# From MPC 74248
C/2010 KW7 (WISE),e,147.0432,105.1240,332.7364,98.63673,0.0010061,0.97389568,0.0000,10/13.1549/2010,2000,g 15.0,2.0
# From MPC 83518
C/2010 L3 (Catalina),e,102.4971,38.2798,121.8965,272939,0.0000000,0.99996371,0.0000,11/09.4351/2010,2000,g  4.5,4.0
# From MPC 74248
C/2010 L4 (WISE),e,102.7412,125.3975,95.5932,79.59948,0.0013878,0.96470718,4.2185,06/23.0/2018,2000,g 11.5,4.0
# From MPC 74248
C/2010 L5 (WISE),e,146.8729,206.3824,214.3333,8.022943,0.0433714,0.90236911,129.5749,06/23.0/2018,2000,g 18.0,4.0
# From MPC 88325
C/2010 R1 (LINEAR),e,156.9427,343.7098,114.6894,15362,0.0000005,0.99963256,0.0000,05/16.9380/2012,2000,g  6.0,4.0
# From MPC109140
C/2010 S1 (LINEAR),h,05/17.7490/2013,125.2944,93.4169,118.4666,1.000456,5.895455,2000,3.5,4.0
# From MPC 74248
P/2010 T2 (PANSTARRS),e,8.0425,59.5577,355.2859,5.478820,0.0768552,0.31869434,195.9588,06/23.0/2018,2000,g 11.5,4.0
# From MPC 81468
P/2010 TO20 (LINEAR-Grauer),e,2.4814,43.2944,268.4822,5.817906,0.0702351,0.05277197,245.1881,06/23.0/2018,2000,g  9.0,4.0
# From MPC 82316
P/2010 U1 (Boattini),e,8.2141,280.7100,86.0270,6.518748,0.0592185,0.24639066,182.0462,06/23.0/2018,2000,g  9.5,4.0
# From MPC 74249
P/2010 U2 (Hill),e,16.8288,357.0809,44.3578,4.284259,0.1111452,0.40066812,310.0505,06/23.0/2018,2000,g 13.0,4.0
# From MPC110493
C/2010 U3 (Boattini),e,55.5125,43.0736,88.0825,13584,0.0000006,0.99937826,0.0000,02/26.5866/2019,2000,g  1.0,4.0
# From MPC 79021
P/2010 UH55 (Spacewatch),e,8.1365,233.5521,224.8525,6.637700,0.0576338,0.56675802,150.1312,06/23.0/2018,2000,g 11.0,4.0
# From MPC 75009
P/2010 WK (LINEAR),e,11.4094,11.3703,41.0926,5.753110,0.0714250,0.68947866,200.9698,06/23.0/2018,2000,g 14.5,2.0
# From MPC 76025
C/2010 X1 (Elenin),e,1.8848,321.9049,344.6274,465.9493,0.0000980,0.99899573,0.0000,09/10.4697/2011,2000,g 10.0,4.0
# From MPC 82317
P/2011 A2 (Scotti),e,4.4755,54.6677,94.6085,3.103782,0.1802467,0.49964785,133.2393,06/23.0/2018,2000,g 16.5,4.0
# From MPC 85831
C/2011 A3 (Gibbs),e,26.0872,124.6934,141.1534,849.0361,0.0000398,0.99725428,0.0000,12/18.0622/2011,2000,g 10.0,4.0
# From MPC 82317
C/2011 C1 (McNaught),e,16.3004,191.1893,85.6810,521.6773,0.0000827,0.99831955,0.0000,04/19.5187/2011,2000,g 15.5,4.0
# From MPC 84021
P/2011 C2 (Gibbs),e,10.8905,12.0940,161.1603,7.409154,0.0488710,0.27053430,115.0528,06/23.0/2018,2000,g  9.0,4.0
# From MPC 75516
C/2011 C3 (Gibbs),e,49.4953,20.8339,206.8148,314.5889,0.0001766,0.99518801,0.0000,04/09.8345/2011,2000,g 17.0,4.0
# From MPC 86639
P/2011 CR42 (Catalina),e,8.4648,58.7215,173.1127,3.509709,0.1498985,0.28151460,0.0669,06/23.0/2018,2000,g 17.5,2.0
# From MPC 89309
C/2011 F1 (LINEAR),e,56.7634,84.9887,192.5180,3154,0.0000056,0.99942495,0.0000,01/08.8265/2013,2000,g  5.0,4.0
# From MPC 79866
P/2011 FR143 (Lemmon),e,16.0155,190.9267,350.1712,6.846561,0.0550168,0.45308446,146.3680,06/23.0/2018,2000,g 14.0,2.0
# From MPC 80044
C/2011 G1 (McNaught),h,09/17.7148/2011,162.1992,153.1268,355.2000,1.001330,2.161694,2000,12.0,4.0
# From MPC106343
C/2011 J2 (LINEAR),h,12/26.0688/2013,122.7534,163.9255,85.2560,1.001628,3.437655,2000,5.5,3.6
# From MPEC 2015-K84
C/2011 J2-B (LINEAR),h,12/25.9466/2013,122.7560,163.9220,85.2135,1.002388,3.436859,2000,9.0,3.6
# From unp
C/2011 J2-C (LINEAR),h,12/26.0390/2013,122.7514,163.9271,85.2306,1.002424,3.436696,2000,11.0,3.6
# From MPC 75713
C/2011 J3 (LINEAR),e,114.4517,21.5784,27.8017,19.52345,0.0114253,0.92575652,30.9626,06/23.0/2018,2000,g 15.0,4.0
# From MPC 82317
P/2011 JB15 (Spacewatch-Boattini),e,19.1484,153.6864,110.6584,7.344890,0.0495138,0.31879101,116.0762,06/23.0/2018,2000,g  9.0,4.0
# From MPC 75516
C/2011 K1 (Schwartz-Holvorcem),e,122.6365,70.5491,166.9627,4392,0.0000034,0.99922943,0.0000,04/19.2268/2011,2000,g 12.0,4.0
# From MPC110493
C/2011 KP36 (Spacewatch),e,18.9831,173.3846,180.5514,38.46992,0.0041307,0.87311398,3.1288,06/23.0/2018,2000,g  4.5,4.0
# From MPC 83518
C/2011 L1 (McNaught),e,65.4843,252.1194,294.5448,11.03972,0.0268700,0.79666965,73.7341,06/23.0/2018,2000,g 11.0,4.0
# From MPC 78588
C/2011 L2 (McNaught),e,104.4599,131.4890,257.0665,5435,0.0000025,0.99964086,0.0000,10/29.5925/2011,2000,g 12.5,4.0
# From MPC 77405
C/2011 L3 (McNaught),e,87.3414,307.7103,27.6105,905.1587,0.0000362,0.99787538,0.0000,08/08.2061/2011,2000,g 12.5,4.0
# From MPC103843
C/2011 L4 (PANSTARRS),e,83.8475,66.0364,333.5881,3840,0.0000041,0.99992168,0.0000,03/09.1837/2013,2000,g  5.5,4.0
# From MPC 82718
C/2011 L6 (Boattini),e,171.4427,214.4327,331.5033,11096,0.0000008,0.99938663,0.0000,01/17.6477/2011,2000,g  9.0,4.0
# From MPC 75714
C/2011 M1 (LINEAR),h,09/05.4241/2011,70.1446,324.9883,119.7440,1.002409,0.908802,2000,12.0,4.0
# From MPC 87913
P/2011 N1 (ASH),e,35.7004,77.6147,330.4853,6.254465,0.0630114,0.54310636,140.0109,06/23.0/2018,2000,g 11.5,4.0
# From MPC 75714
P/2011 NO1 (Elenin),e,15.2476,295.8762,263.7772,5.520117,0.0759944,0.77600120,205.6688,06/23.0/2018,2000,g 15.0,4.0
# From MPC 76569
C/2011 N2 (McNaught),e,33.7620,273.8131,357.0316,1659,0.0000146,0.99846246,0.0000,10/20.3844/2011,2000,g 11.5,4.0
# From MPC 87476
C/2011 O1 (LINEAR),e,76.6329,89.7714,232.3367,740.5117,0.0000489,0.99474981,0.0000,08/18.3739/2012,2000,g  7.0,4.0
# From MPC 78186
P/2011 P1 (McNaught),e,5.6479,4.2796,348.9168,7.482964,0.0481497,0.32466455,139.8498,06/23.0/2018,2000,g  9.0,4.0
# From MPC107047
C/2011 P2 (PANSTARRS),e,9.0062,203.9833,75.8915,9.714722,0.0325506,0.37003416,92.4955,06/23.0/2018,2000,g  8.5,4.0
# From MPC 79867
C/2011 Q1 (PANSTARRS),e,94.8505,142.1682,135.7595,3332,0.0000051,0.99797026,0.0000,06/28.8006/2011,2000,g  9.5,4.0
# From MPC 79342
C/2011 Q2 (McNaught),e,37.3290,287.1289,34.7478,817.8209,0.0000421,0.99835328,0.0000,01/18.7731/2012,2000,g 10.0,4.0
# From MPC 77806
